{"type": "FeatureCollection", "features": [ {"type": "Feature", "properties": {"norad_id": 34303, "name": "COSMOS 2251 DEB", "group": "cosmos-2251-debris", "lat": -35.002555515666636, "lon": -75.27151212475876, "alt_km": 752.6035641829012, "timestamp": "2025-12-08T08:59:01.160395+00:00", "meta": {"OBJECT_NAME": "COSMOS 2251 DEB", "OBJECT_ID": "1993-036MZ", "EPOCH": "2025-12-07T21:51:55.901952", "MEAN_MOTION": 14.54351654, "ECCENTRICITY": 0.01349471, "INCLINATION": 74.006, "RA_OF_ASC_NODE": 297.1929, "ARG_OF_PERICENTER": 76.7887, "MEAN_ANOMALY": 343.6425, "EPHEMERIS_TYPE": 0, "CLASSIFICATION_TYPE": "U", "NORAD_CAT_ID": 34303, "ELEMENT_SET_NO": 999, "REV_AT_EPOCH": 87892, "BSTAR": 0.0017559046, "MEAN_MOTION_DOT": 8.402e-05, "MEAN_MOTION_DDOT": 0}, "tle": {"line1": "1 34303U 93036MZ  25341.91106368  .00008402  00000+0  17559-2 0  9995", "line2": "2 34303  74.0060 297.1929 0134947  76.7887 343.6425 14.54351654878921"}}, "geometry": {"type": "Point", "coordinates": [-75.27151212475876, -35.002555515666636]}}, {"type": "Feature", "properties": {"norad_id": 34304, "name": "COSMOS 2251 DEB", "group": "cosmos-2251-debris", "lat": -21.187135083640577, "lon": 124.2672518236554, "alt_km": 736.241044241362, "timestamp": "2025-12-08T08:59:01.160406+00:00", "meta": {"OBJECT_NAME": "COSMOS 2251 DEB", "OBJECT_ID": "1993-036NA", "EPOCH": "2025-12-07T16:27:33.114816", "MEAN_MOTION": 14.37786855, "ECCENTRICITY": 0.01289234, "INCLINATION": 74.0132, "RA_OF_ASC_NODE": 131.9166, "ARG_OF_PERICENTER": 270.7411, "MEAN_ANOMALY": 103.5367, "EPHEMERIS_TYPE": 0, "CLASSIFICATION_TYPE": "U", "NORAD_CAT_ID": 34304, "ELEMENT_SET_NO": 999, "REV_AT_EPOCH": 87224, "BSTAR": 0.0024401555, "MEAN_MOTION_DOT": 8.071e-05, "MEAN_MOTION_DDOT": 0}, "tle": {"line1": "1 34304U 93036NA  25341.68579994  .00008071  00000+0  24402-2 0  9996", "line2": "2 34304  74.0132 131.9166 0128923 270.7411 103.5367 14.37786855872249"}}, "geometry": {"type": "Point", "coordinates": [124.2672518236554, -21.187135083640577]}}, {"type": "Feature", "properties": {"norad_id": 34307, "name": "COSMOS 2251 DEB", "group": "cosmos-2251-debris", "lat": 46.068996221303266, "lon": -22.613360039200284, "alt_km": 1108.9502734085618, "timestamp": "2025-12-08T08:59:01.160416+00:00", "meta": {"OBJECT_NAME": "COSMOS 2251 DEB", "OBJECT_ID": "1993-036ND", "EPOCH": "2025-12-06T09:36:06.433344", "MEAN_MOTION": 13.54308603, "ECCENTRICITY": 0.03922456, "INCLINATION": 74.053, "RA_OF_ASC_NODE": 323.2886, "ARG_OF_PERICENTER": 155.6194, "MEAN_ANOMALY": 355.4854, "EPHEMERIS_TYPE": 0, "CLASSIFICATION_TYPE": "U", "NORAD_CAT_ID": 34307, "ELEMENT_SET_NO": 999, "REV_AT_EPOCH": 82776, "BSTAR": 0.00098411458, "MEAN_MOTION_DOT": 1.076e-05, "MEAN_MOTION_DDOT": 0}, "tle": {"line1": "1 34307U 93036ND  25340.40007446  .00001076  00000+0  98411-3 0  9996", "line2": "2 34307  74.0530 323.2886 0392245 155.6194 355.4854 13.54308603827763"}}, "geometry": {"type": "Point", "coordinates": [-22.613360039200284, 46.068996221303266]}}, {"type": "Feature", "properties": {"norad_id": 34313, "name": "COSMOS 2251 DEB", "group": "cosmos-2251-debris", "lat": 36.00931739312361, "lon": 122.59892387001622, "alt_km": 504.8260251233287, "timestamp": "2025-12-08T08:59:01.160426+00:00", "meta": {"OBJECT_NAME": "COSMOS 2251 DEB", "OBJECT_ID": "1993-036NK", "EPOCH": "2025-12-07T22:52:11.659008", "MEAN_MOTION": 15.17914142, "ECCENTRICITY": 0.00113125, "INCLINATION": 73.9722, "RA_OF_ASC_NODE": 315.5422, "ARG_OF_PERICENTER": 86.4671, "MEAN_ANOMALY": 273.7818, "EPHEMERIS_TYPE": 0, "CLASSIFICATION_TYPE": "U", "NORAD_CAT_ID": 34313, "ELEMENT_SET_NO": 999, "REV_AT_EPOCH": 88992, "BSTAR": 0.0047349657, "MEAN_MOTION_DOT": 0.00097489, "MEAN_MOTION_DDOT": 0}, "tle": {"line1": "1 34313U 93036NK  25341.95291272  .00097489  00000+0  47350-2 0  9994", "line2": "2 34313  73.9722 315.5422 0011312  86.4671 273.7818 15.17914142889925"}}, "geometry": {"type": "Point", "coordinates": [122.59892387001622, 36.00931739312361]}}, {"type": "Feature", "properties": {"norad_id": 34314, "name": "COSMOS 2251 DEB", "group": "cosmos-2251-debris", "lat": -47.46867170145666, "lon": -62.04454774588373, "alt_km": 868.8083388101986, "timestamp": "2025-12-08T08:59:01.160436+00:00", "meta": {"OBJECT_NAME": "COSMOS 2251 DEB", "OBJECT_ID": "1993-036NL", "EPOCH": "2025-12-07T18:14:27.473280", "MEAN_MOTION": 14.17406267, "ECCENTRICITY": 0.01026878, "INCLINATION": 74.0068, "RA_OF_ASC_NODE": 317.2697, "ARG_OF_PERICENTER": 64.213, "MEAN_ANOMALY": 353.6773, "EPHEMERIS_TYPE": 0, "CLASSIFICATION_TYPE": "U", "NORAD_CAT_ID": 34314, "ELEMENT_SET_NO": 999, "REV_AT_EPOCH": 86587, "BSTAR": 0.0011432501, "MEAN_MOTION_DOT": 2.414e-05, "MEAN_MOTION_DDOT": 0}, "tle": {"line1": "1 34314U 93036NL  25341.76004020  .00002414  00000+0  11433-2 0  9994", "line2": "2 34314  74.0068 317.2697 0102687  64.2130 353.6773 14.17406267865873"}}, "geometry": {"type": "Point", "coordinates": [-62.04454774588373, -47.46867170145666]}}, {"type": "Feature", "properties": {"norad_id": 34316, "name": "COSMOS 2251 DEB", "group": "cosmos-2251-debris", "lat": 52.72972258566447, "lon": 7.683841752608092, "alt_km": 582.1868812116527, "timestamp": "2025-12-08T08:59:01.160446+00:00", "meta": {"OBJECT_NAME": "COSMOS 2251 DEB", "OBJECT_ID": "1993-036NN", "EPOCH": "2025-12-07T06:58:46.161120", "MEAN_MOTION": 14.91581572, "ECCENTRICITY": 0.00080438, "INCLINATION": 74.0667, "RA_OF_ASC_NODE": 347.8024, "ARG_OF_PERICENTER": 74.6353, "MEAN_ANOMALY": 285.5718, "EPHEMERIS_TYPE": 0, "CLASSIFICATION_TYPE": "U", "NORAD_CAT_ID": 34316, "ELEMENT_SET_NO": 999, "REV_AT_EPOCH": 89128, "BSTAR": 0.0023910777, "MEAN_MOTION_DOT": 0.00024052, "MEAN_MOTION_DDOT": 0}, "tle": {"line1": "1 34316U 93036NN  25341.29081205  .00024052  00000+0  23911-2 0  9990", "line2": "2 34316  74.0667 347.8024 0008043  74.6353 285.5718 14.91581572891287"}}, "geometry": {"type": "Point", "coordinates": [7.683841752608092, 52.72972258566447]}}, {"type": "Feature", "properties": {"norad_id": 34317, "name": "COSMOS 2251 DEB", "group": "cosmos-2251-debris", "lat": -12.872961384740163, "lon": 39.16661082719889, "alt_km": 845.1996503150867, "timestamp": "2025-12-08T08:59:01.160457+00:00", "meta": {"OBJECT_NAME": "COSMOS 2251 DEB", "OBJECT_ID": "1993-036NP", "EPOCH": "2025-12-07T14:01:14.056608", "MEAN_MOTION": 13.65115496, "ECCENTRICITY": 0.03363711, "INCLINATION": 73.925, "RA_OF_ASC_NODE": 44.245, "ARG_OF_PERICENTER": 34.5114, "MEAN_ANOMALY": 33.3638, "EPHEMERIS_TYPE": 0, "CLASSIFICATION_TYPE": "U", "NORAD_CAT_ID": 34317, "ELEMENT_SET_NO": 999, "REV_AT_EPOCH": 83549, "BSTAR": 0.00060996659, "MEAN_MOTION_DOT": 7.06e-06, "MEAN_MOTION_DDOT": 0}, "tle": {"line1": "1 34317U 93036NP  25341.58419047  .00000706  00000+0  60997-3 0  9998", "line2": "2 34317  73.9250  44.2450 0336371  34.5114  33.3638 13.65115496835492"}}, "geometry": {"type": "Point", "coordinates": [39.16661082719889, -12.872961384740163]}}, {"type": "Feature", "properties": {"norad_id": 34321, "name": "COSMOS 2251 DEB", "group": "cosmos-2251-debris", "lat": 38.60365507868983, "lon": -28.654721855260277, "alt_km": 732.4186142791987, "timestamp": "2025-12-08T08:59:01.160467+00:00", "meta": {"OBJECT_NAME": "COSMOS 2251 DEB", "OBJECT_ID": "1993-036NT", "EPOCH": "2025-12-07T22:56:32.991360", "MEAN_MOTION": 14.50023268, "ECCENTRICITY": 0.00157095, "INCLINATION": 74.0281, "RA_OF_ASC_NODE": 165.3493, "ARG_OF_PERICENTER": 295.1743, "MEAN_ANOMALY": 181.253, "EPHEMERIS_TYPE": 0, "CLASSIFICATION_TYPE": "U", "NORAD_CAT_ID": 34321, "ELEMENT_SET_NO": 999, "REV_AT_EPOCH": 88417, "BSTAR": 0.00075330325, "MEAN_MOTION_DOT": 2.897e-05, "MEAN_MOTION_DDOT": 0}, "tle": {"line1": "1 34321U 93036NT  25341.95593740  .00002897  00000+0  75330-3 0  9997", "line2": "2 34321  74.0281 165.3493 0015709 295.1743 181.2530 14.50023268884170"}}, "geometry": {"type": "Point", "coordinates": [-28.654721855260277, 38.60365507868983]}}, {"type": "Feature", "properties": {"norad_id": 34323, "name": "COSMOS 2251 DEB", "group": "cosmos-2251-debris", "lat": 44.25993820581829, "lon": -64.6089289504855, "alt_km": 612.8249183858561, "timestamp": "2025-12-08T08:59:01.160477+00:00", "meta": {"OBJECT_NAME": "COSMOS 2251 DEB", "OBJECT_ID": "1993-036NV", "EPOCH": "2025-12-07T21:32:47.004864", "MEAN_MOTION": 14.74167018, "ECCENTRICITY": 0.00600693, "INCLINATION": 73.9534, "RA_OF_ASC_NODE": 132.6142, "ARG_OF_PERICENTER": 177.7409, "MEAN_ANOMALY": 308.0447, "EPHEMERIS_TYPE": 0, "CLASSIFICATION_TYPE": "U", "NORAD_CAT_ID": 34323, "ELEMENT_SET_NO": 999, "REV_AT_EPOCH": 88368, "BSTAR": 0.0033753226, "MEAN_MOTION_DOT": 0.00022972, "MEAN_MOTION_DDOT": 0}, "tle": {"line1": "1 34323U 93036NV  25341.89776626  .00022972  00000+0  33753-2 0  9996", "line2": "2 34323  73.9534 132.6142 0060069 177.7409 308.0447 14.74167018883681"}}, "geometry": {"type": "Point", "coordinates": [-64.6089289504855, 44.25993820581829]}}, {"type": "Feature", "properties": {"norad_id": 34325, "name": "COSMOS 2251 DEB", "group": "cosmos-2251-debris", "lat": 6.300982608302138, "lon": -157.67015112809545, "alt_km": 997.9531677152099, "timestamp": "2025-12-08T08:59:01.160487+00:00", "meta": {"OBJECT_NAME": "COSMOS 2251 DEB", "OBJECT_ID": "1993-036NX", "EPOCH": "2025-12-07T21:03:39.691872", "MEAN_MOTION": 14.04430641, "ECCENTRICITY": 0.01926999, "INCLINATION": 73.8711, "RA_OF_ASC_NODE": 201.3738, "ARG_OF_PERICENTER": 219.683, "MEAN_ANOMALY": 155.0908, "EPHEMERIS_TYPE": 0, "CLASSIFICATION_TYPE": "U", "NORAD_CAT_ID": 34325, "ELEMENT_SET_NO": 999, "REV_AT_EPOCH": 85447, "BSTAR": 0.0028555793, "MEAN_MOTION_DOT": 5.347e-05, "MEAN_MOTION_DDOT": 0}, "tle": {"line1": "1 34325U 93036NX  25341.87754273  .00005347  00000+0  28556-2 0  9992", "line2": "2 34325  73.8711 201.3738 0192699 219.6830 155.0908 14.04430641854478"}}, "geometry": {"type": "Point", "coordinates": [-157.67015112809545, 6.300982608302138]}}]}